[Satellite]
VERSION=1.1
NAME=Lume 1
NICKNAME=Lume 1
TLE1=1 43908U 18111AJ  22342.17721342  .00019137  00000+0  57248-3 0  9995
TLE2=2 43908  97.1666 224.6711 0016531 164.6156 195.5594 15.34457018219995
STATUS=0
